STARLINK-34812          
1 66026U 25232X   25307.91670139 -.01970685  00000+0 -34271-1 0  9992
2 66026  53.1588 330.7171 0001180  89.1201 228.9445 15.53316075  3255
STARLINK-35341          
1 66027U 25232Y   25307.91670139 -.01987964  00000+0 -23794-1 0  9999
2 66027  53.1589 330.5432 0001119  73.7924 329.9157 15.63673764  3308
STARLINK-35339          
1 66028U 25232Z   25307.91670139 -.01986252  00000+0 -23770-1 0  9993
2 66028  53.1588 330.5394 0001170  75.7492 329.8751 15.63673171  3248
STARLINK-35399          
1 66029U 25232AA  25307.91670139 -.01983800  00000+0 -23738-1 0  9994
2 66029  53.1587 330.5358 0001095  78.3318 329.2086 15.63672636  3240
STARLINK-35431          
1 66030U 25232AB  25307.91670139 -.01979344  00000+0 -23679-1 0  9998
2 66030  53.1587 330.5308 0001263  71.9900 337.4666 15.63669694  3245
STARLINK-35326          
1 66031U 25232AC  25307.91670139 -.01981759  00000+0 -23710-1 0  9998
2 66031  53.1584 330.5278 0001218  75.0015 336.3700 15.63672271  3300
STARLINK-35311          
1 66032U 25232AD  25307.91670139 -.01979989  00000+0 -23689-1 0  9996
2 66032  53.1587 330.5232 0001139  72.6304 340.6616 15.63669659  3300
QIANFAN-91              
1 66033U 25233A   25307.88465195  .00000693  00000+0  28457-3 0  9992
2 66033  88.9950  66.5041 0016364 154.0497 206.1521 14.25914680  2505
QIANFAN-92              
1 66034U 25233B   25307.88400523  .00000683  00000+0  28019-3 0  9990
2 66034  88.9949  66.5038 0015955 156.5418 203.6506 14.25996474  2501
QIANFAN-93              
1 66035U 25233C   25307.88295374  .00000691  00000+0  28284-3 0  9990
2 66035  88.9949  66.5038 0015275 155.8574 204.3339 14.26080061  2501
QIANFAN-94              
1 66036U 25233D   25307.88269951  .00000696  00000+0  28501-3 0  9990
2 66036  88.9950  66.5038 0015346 155.5280 204.6645 14.26105262  2508
QIANFAN-95              
1 66037U 25233E   25307.88239922  .00000700  00000+0  28630-3 0  9995
2 66037  88.9950  66.5037 0015306 155.9257 204.2655 14.26150466  2505
