CCSDS_OMM_VERS = 2.0
CREATION_DATE  = 
ORIGINATOR     = 

OBJECT_NAME    = STARLINK-34812
OBJECT_ID      = 2025-232X
CENTER_NAME    = EARTH
REF_FRAME      = TEME
TIME_SYSTEM    = UTC
MEAN_ELEMENT_THEORY = SGP/SGP4

EPOCH          = 2025-11-03T22:00:03.000096
MEAN_MOTION    = 15.53316075
ECCENTRICITY   = .00011807
INCLINATION    = 53.1588
RA_OF_ASC_NODE = 330.7171
ARG_OF_PERICENTER = 89.1201
MEAN_ANOMALY   = 228.9445

EPHEMERIS_TYPE = 0
CLASSIFICATION_TYPE = U
NORAD_CAT_ID   = 66026
ELEMENT_SET_NO = 999
REV_AT_EPOCH   = 325
BSTAR          = -.34270717E-1
MEAN_MOTION_DOT = -.1970685E-1
MEAN_MOTION_DDOT = 0

CCSDS_OMM_VERS = 2.0
CREATION_DATE  = 
ORIGINATOR     = 

OBJECT_NAME    = STARLINK-35341
OBJECT_ID      = 2025-232Y
CENTER_NAME    = EARTH
REF_FRAME      = TEME
TIME_SYSTEM    = UTC
MEAN_ELEMENT_THEORY = SGP/SGP4

EPOCH          = 2025-11-03T22:00:03.000096
MEAN_MOTION    = 15.63673764
ECCENTRICITY   = .00011197
INCLINATION    = 53.1589
RA_OF_ASC_NODE = 330.5432
ARG_OF_PERICENTER = 73.7924
MEAN_ANOMALY   = 329.9157

EPHEMERIS_TYPE = 0
CLASSIFICATION_TYPE = U
NORAD_CAT_ID   = 66027
ELEMENT_SET_NO = 999
REV_AT_EPOCH   = 330
BSTAR          = -.23793632E-1
MEAN_MOTION_DOT = -.1987964E-1
MEAN_MOTION_DDOT = 0

CCSDS_OMM_VERS = 2.0
CREATION_DATE  = 
ORIGINATOR     = 

OBJECT_NAME    = STARLINK-35339
OBJECT_ID      = 2025-232Z
CENTER_NAME    = EARTH
REF_FRAME      = TEME
TIME_SYSTEM    = UTC
MEAN_ELEMENT_THEORY = SGP/SGP4

EPOCH          = 2025-11-03T22:00:03.000096
MEAN_MOTION    = 15.63673171
ECCENTRICITY   = .00011701
INCLINATION    = 53.1588
RA_OF_ASC_NODE = 330.5394
ARG_OF_PERICENTER = 75.7492
MEAN_ANOMALY   = 329.8751

EPHEMERIS_TYPE = 0
CLASSIFICATION_TYPE = U
NORAD_CAT_ID   = 66028
ELEMENT_SET_NO = 999
REV_AT_EPOCH   = 324
BSTAR          = -.23770366E-1
MEAN_MOTION_DOT = -.1986252E-1
MEAN_MOTION_DDOT = 0

CCSDS_OMM_VERS = 2.0
CREATION_DATE  = 
ORIGINATOR     = 

OBJECT_NAME    = STARLINK-35399
OBJECT_ID      = 2025-232AA
CENTER_NAME    = EARTH
REF_FRAME      = TEME
TIME_SYSTEM    = UTC
MEAN_ELEMENT_THEORY = SGP/SGP4

EPOCH          = 2025-11-03T22:00:03.000096
MEAN_MOTION    = 15.63672636
ECCENTRICITY   = .00010951
INCLINATION    = 53.1587
RA_OF_ASC_NODE = 330.5358
ARG_OF_PERICENTER = 78.3318
MEAN_ANOMALY   = 329.2086

EPHEMERIS_TYPE = 0
CLASSIFICATION_TYPE = U
NORAD_CAT_ID   = 66029
ELEMENT_SET_NO = 999
REV_AT_EPOCH   = 324
BSTAR          = -.23738213E-1
MEAN_MOTION_DOT = -.19838E-1
MEAN_MOTION_DDOT = 0

CCSDS_OMM_VERS = 2.0
CREATION_DATE  = 
ORIGINATOR     = 

OBJECT_NAME    = STARLINK-35431
OBJECT_ID      = 2025-232AB
CENTER_NAME    = EARTH
REF_FRAME      = TEME
TIME_SYSTEM    = UTC
MEAN_ELEMENT_THEORY = SGP/SGP4

EPOCH          = 2025-11-03T22:00:03.000096
MEAN_MOTION    = 15.63669694
ECCENTRICITY   = .0001263
INCLINATION    = 53.1587
RA_OF_ASC_NODE = 330.5308
ARG_OF_PERICENTER = 71.9900
MEAN_ANOMALY   = 337.4666

EPHEMERIS_TYPE = 0
CLASSIFICATION_TYPE = U
NORAD_CAT_ID   = 66030
ELEMENT_SET_NO = 999
REV_AT_EPOCH   = 324
BSTAR          = -.23678667E-1
MEAN_MOTION_DOT = -.1979344E-1
MEAN_MOTION_DDOT = 0

CCSDS_OMM_VERS = 2.0
CREATION_DATE  = 
ORIGINATOR     = 

OBJECT_NAME    = STARLINK-35326
OBJECT_ID      = 2025-232AC
CENTER_NAME    = EARTH
REF_FRAME      = TEME
TIME_SYSTEM    = UTC
MEAN_ELEMENT_THEORY = SGP/SGP4

EPOCH          = 2025-11-03T22:00:03.000096
MEAN_MOTION    = 15.63672271
ECCENTRICITY   = .00012187
INCLINATION    = 53.1584
RA_OF_ASC_NODE = 330.5278
ARG_OF_PERICENTER = 75.0015
MEAN_ANOMALY   = 336.3700

EPHEMERIS_TYPE = 0
CLASSIFICATION_TYPE = U
NORAD_CAT_ID   = 66031
ELEMENT_SET_NO = 999
REV_AT_EPOCH   = 330
BSTAR          = -.23709539E-1
MEAN_MOTION_DOT = -.1981759E-1
MEAN_MOTION_DDOT = 0

CCSDS_OMM_VERS = 2.0
CREATION_DATE  = 
ORIGINATOR     = 

OBJECT_NAME    = STARLINK-35311
OBJECT_ID      = 2025-232AD
CENTER_NAME    = EARTH
REF_FRAME      = TEME
TIME_SYSTEM    = UTC
MEAN_ELEMENT_THEORY = SGP/SGP4

EPOCH          = 2025-11-03T22:00:03.000096
MEAN_MOTION    = 15.63669659
ECCENTRICITY   = .00011399
INCLINATION    = 53.1587
RA_OF_ASC_NODE = 330.5232
ARG_OF_PERICENTER = 72.6304
MEAN_ANOMALY   = 340.6616

EPHEMERIS_TYPE = 0
CLASSIFICATION_TYPE = U
NORAD_CAT_ID   = 66032
ELEMENT_SET_NO = 999
REV_AT_EPOCH   = 330
BSTAR          = -.236887E-1
MEAN_MOTION_DOT = -.1979989E-1
MEAN_MOTION_DDOT = 0

CCSDS_OMM_VERS = 2.0
CREATION_DATE  = 
ORIGINATOR     = 

OBJECT_NAME    = QIANFAN-91
OBJECT_ID      = 2025-233A
CENTER_NAME    = EARTH
REF_FRAME      = TEME
TIME_SYSTEM    = UTC
MEAN_ELEMENT_THEORY = SGP/SGP4

EPOCH          = 2025-11-03T21:13:53.928480
MEAN_MOTION    = 14.25914680
ECCENTRICITY   = .0016364
INCLINATION    = 88.9950
RA_OF_ASC_NODE = 66.5041
ARG_OF_PERICENTER = 154.0497
MEAN_ANOMALY   = 206.1521

EPHEMERIS_TYPE = 0
CLASSIFICATION_TYPE = U
NORAD_CAT_ID   = 66033
ELEMENT_SET_NO = 999
REV_AT_EPOCH   = 250
BSTAR          = .284572E-3
MEAN_MOTION_DOT = .693E-5
MEAN_MOTION_DDOT = 0

CCSDS_OMM_VERS = 2.0
CREATION_DATE  = 
ORIGINATOR     = 

OBJECT_NAME    = QIANFAN-92
OBJECT_ID      = 2025-233B
CENTER_NAME    = EARTH
REF_FRAME      = TEME
TIME_SYSTEM    = UTC
MEAN_ELEMENT_THEORY = SGP/SGP4

EPOCH          = 2025-11-03T21:12:58.051872
MEAN_MOTION    = 14.25996474
ECCENTRICITY   = .00159552
INCLINATION    = 88.9949
RA_OF_ASC_NODE = 66.5038
ARG_OF_PERICENTER = 156.5418
MEAN_ANOMALY   = 203.6506

EPHEMERIS_TYPE = 0
CLASSIFICATION_TYPE = U
NORAD_CAT_ID   = 66034
ELEMENT_SET_NO = 999
REV_AT_EPOCH   = 250
BSTAR          = .28018796E-3
MEAN_MOTION_DOT = .683E-5
MEAN_MOTION_DDOT = 0

CCSDS_OMM_VERS = 2.0
CREATION_DATE  = 
ORIGINATOR     = 

OBJECT_NAME    = QIANFAN-93
OBJECT_ID      = 2025-233C
CENTER_NAME    = EARTH
REF_FRAME      = TEME
TIME_SYSTEM    = UTC
MEAN_ELEMENT_THEORY = SGP/SGP4

EPOCH          = 2025-11-03T21:11:27.203136
MEAN_MOTION    = 14.26080061
ECCENTRICITY   = .00152759
INCLINATION    = 88.9949
RA_OF_ASC_NODE = 66.5038
ARG_OF_PERICENTER = 155.8574
MEAN_ANOMALY   = 204.3339

EPHEMERIS_TYPE = 0
CLASSIFICATION_TYPE = U
NORAD_CAT_ID   = 66035
ELEMENT_SET_NO = 999
REV_AT_EPOCH   = 250
BSTAR          = .28284495E-3
MEAN_MOTION_DOT = .691E-5
MEAN_MOTION_DDOT = 0

CCSDS_OMM_VERS = 2.0
CREATION_DATE  = 
ORIGINATOR     = 

OBJECT_NAME    = QIANFAN-94
OBJECT_ID      = 2025-233D
CENTER_NAME    = EARTH
REF_FRAME      = TEME
TIME_SYSTEM    = UTC
MEAN_ELEMENT_THEORY = SGP/SGP4

EPOCH          = 2025-11-03T21:11:05.237664
MEAN_MOTION    = 14.26105262
ECCENTRICITY   = .00153462
INCLINATION    = 88.9950
RA_OF_ASC_NODE = 66.5038
ARG_OF_PERICENTER = 155.5280
MEAN_ANOMALY   = 204.6645

EPHEMERIS_TYPE = 0
CLASSIFICATION_TYPE = U
NORAD_CAT_ID   = 66036
ELEMENT_SET_NO = 999
REV_AT_EPOCH   = 250
BSTAR          = .28501039E-3
MEAN_MOTION_DOT = .696E-5
MEAN_MOTION_DDOT = 0

CCSDS_OMM_VERS = 2.0
CREATION_DATE  = 
ORIGINATOR     = 

OBJECT_NAME    = QIANFAN-95
OBJECT_ID      = 2025-233E
CENTER_NAME    = EARTH
REF_FRAME      = TEME
TIME_SYSTEM    = UTC
MEAN_ELEMENT_THEORY = SGP/SGP4

EPOCH          = 2025-11-03T21:10:39.292608
MEAN_MOTION    = 14.26150466
ECCENTRICITY   = .0015306
INCLINATION    = 88.9950
RA_OF_ASC_NODE = 66.5037
ARG_OF_PERICENTER = 155.9257
MEAN_ANOMALY   = 204.2655

EPHEMERIS_TYPE = 0
CLASSIFICATION_TYPE = U
NORAD_CAT_ID   = 66037
ELEMENT_SET_NO = 999
REV_AT_EPOCH   = 250
BSTAR          = .28630402E-3
MEAN_MOTION_DOT = .7E-5
MEAN_MOTION_DDOT = 0

